#dP2022  2 19  0  0  0.00000000      97 __u+U IGS14 FIT  IAC
## 2197 518400.00000000   900.00000000 59629 0.0000000000000
+  122   C01C02C03C04C05C06C07C08C09C10C11C12C13C14C19C20C21
+        C22C23C24C25C26C27C28C29C30C32C33C34C35C36C37C38C39
+        C40C41C42C43C44C45C46C59C60E01E02E03E04E05E07E09E10
+        E11E12E13E14E15E18E21E24E25E26E27E30E31E33E34E36G01
+        G02G03G04G05G06G07G08G09G10G11G12G13G14G15G16G17G18
+        G19G20G21G22G23G24G25G26G27G28G29G30G31G32J01J02J03
+        R01R02R03R04R05R07R08R09R11R12R13R14R15R17R18R19R20
+        R21R22R24  0  0  0  0  0  0  0  0  0  0  0  0  0  0
++        15 15 15 15 15  9  9  8  9  9  8  8  8  8  7  7  7
++         7  7  7  7  7  6  6  7  7  7  7  6  7  7  7  7  7
++         7  7  7  7  7  7  7 16 15  4  4  4  4  4  4  4  5
++         5  4  4  4  4  4  4  4  4  4  4  4  4  4  4  5  3
++         3  3  3  3  3  3  3  3  3  3  3  4  3  4  4  3  3
++         3  3  3  3  3  3  3  3  3  4  4  3  3  3  8  8  8
++         6  5  5  5  5  5  5  6  7  5  7  6  6  6  6  7  6
++         5  7  6  0  0  0  0  0  0  0  0  0  0  0  0  0  0
%c M  cc GPS ccc cccc cccc cccc cccc ccccc ccccc ccccc ccccc
%c cc cc ccc ccc cccc cccc cccc cccc ccccc ccccc ccccc ccccc
%f  1.2500000  1.025000000  0.00000000000  0.000000000000000
%f  0.0000000  0.000000000  0.00000000000  0.000000000000000
%i    0    0    0    0      0      0      0      0         0
%i    0    0    0    0      0      0      0      0         0
/* INFORMATION & ANALYSIS CENTER (IAC)            FINAL DATA
/* S/V CLOCKS ARE ALIGNED TO GNSS TIME                      
/* G:C1WC2W R:C1PC2P E:C1XC5X C:C2IC6I J:C1CC2S             
/* PCV:IGS14_2196 OL/AL:FES2004  NONE     YN ORB:CoN CLK:CoN
*  2022 02 19  1  0  0.00000000
PC01 -34346.955367  24460.372745   -369.333771   -113.367498
PC02   4501.882546  41951.472412    378.818300    302.928946
PC03 -14731.553089  39536.024464   -552.861150    842.803138
PC04 -39648.796631  14346.218449   -706.751892   -347.278015
PC05  21945.443060  36027.278435    786.653569   -482.688954
PC06  -9116.339120  23066.761886  34080.638097     74.920282
PC07 -17012.011802  37121.904722 -10768.852075    -70.653274
PC08  -1162.449914  36014.534743 -21746.287103    144.056161
PC09   2260.239306  25676.282969  33768.739948   -535.204263
PC10 -11053.000810  37347.927319 -16456.103436    139.757412
PC11 -24119.018911 -11410.765097   8285.935008   -199.641019
PC12  -8453.755024 -16200.952770  21131.974621    680.994630
PC13   4244.432007  39076.090873 -14774.109969   -112.564982
PC14 -14476.924011  -7333.985055 -22683.205623    454.234993
PC19  19900.371205  -2194.600756  19461.334323    895.383939
PC20   8057.754327  14287.264188  22596.609603   -826.361674
PC21   9405.693537 -23182.493758 -12324.705132   -942.718003
PC22  20708.571380 -18036.629431   4890.987896   -958.119213
PC23 -12658.525596  11918.228727  21822.409211   -957.365177
PC24 -11981.720137 -24627.529534   5423.428040   -944.056509
PC25 -17866.064702  -7727.326362  19993.943799   -777.379362
PC26   -968.795280 -25841.865912 -10552.418356    777.177730
PC27  -2037.164767  15789.613373 -22937.382768    679.617286
PC28 -20659.819878   7493.442117 -17193.621082     34.360866
PC29  27542.276010   4384.587438   1080.428355    517.047927
PC30  17819.770474  14515.750043 -15850.224092    493.630623
PC32  -9245.333336  23285.601961  12316.677436   -967.260694
PC33 -19880.934781   2258.791078 -19449.914281   -958.355578
PC34 -18589.480481 -14253.436766  15137.013924   -465.886149
PC35  21017.106135  -7793.385918  16641.135196    146.165874
PC36  17675.736402   8644.111467 -19768.468776   -909.663245
PC37   -456.010913  25415.502268  11492.515120   -959.082565
PC38  -6501.620129  32675.800109 -25707.135747    212.413109
PC39 -16907.501240  20431.560418  32748.553403     34.796783
PC40 -23645.192798  33638.386286  -9695.859394    245.608461
PC41 -20756.988895  17887.667689  -5222.463954   -939.898756
PC42  -7273.145878 -15016.048021 -22320.341882   -931.990358
PC43 -27452.910683  -4904.094244   -454.529839   -940.875898
PC44   1808.888796 -15921.022165  22837.810736    569.400479
PC45  12406.295693 -12167.841431 -21845.466826    684.214873
PC46  12704.790333  23878.857326  -6778.878102   -176.046677
PC59 -32330.313498  27063.678566    554.112254 999999.999999
PC60   7302.287271  41508.354967  -1534.980811     -0.301911
PE01 -11821.586072  25302.992317   9782.293034   -581.777629
PE02  11750.372715 -25413.863963  -9648.711782    281.168870
PE03  18545.397444 -17553.025713 -14966.152392   -529.212283
PE04   1872.728915  17245.074435  23990.078458   -967.687455
PE05  28462.608387  -7542.962022   3037.931125   -207.735976
PE07 -21674.988175  -6707.179753 -19008.714497   -640.428634
PE09  21813.993390   6374.840444  18961.809693   5355.439641
PE10  18769.865445  21822.743607  -6906.540615   -496.166233
PE11  23690.595905  17440.010225   3376.682014   4419.891262
PE12  10977.934402  22714.452902 -15496.381718   4752.467259
PE13 -23513.725615 -17762.983948  -2713.435842    426.652619
PE14   8509.902537 -14670.673419  16164.357650  -1750.681653
PE15 -10905.076766 -22623.212702  15670.527173    762.461258
PE18 -11104.482599  20355.480994 -22793.030268  -1776.087789
PE21 -17233.823837   8866.094203  22364.075502   -717.986839
PE24  12530.821480  14911.690552 -22295.782858  -1398.258654
PE25  17251.520308  -8606.138254 -22463.715140   -564.104536
PE26 -21840.510803  -1559.718477 -19906.870968   -821.777221
PE27 -13102.844460 -13628.980106  22778.406420   -235.497573
PE30   -441.666724 -28270.281396   8788.909632   -285.419835
PE31   1303.281538  27896.935847  -9789.838595   -492.391864
PE33  -8052.494212  14133.693828 -24720.812770   -459.301758
PE34   7845.657158 -14294.313404  24704.382375   -502.562864
PE36  22234.652750   2496.835826  19394.254473   -334.290250
PG01  20572.883456  11642.734301  12174.293999    428.027144
PG02 -13494.741987 -21401.568166   8516.062603   -651.106449
PG03  14946.441194   2085.244536  21746.019444   -127.740482
PG04  25322.740270   1510.934273   8014.175334   -188.721871
PG05  -7909.892859 -17904.100906 -18044.582805    -71.918359
PG06    515.699701 -18571.350286  19021.446835    205.930360
PG07  16040.292789  -3874.617846 -20526.163855    311.255549
PG08  19291.675618   7657.011445 -16796.581448    -56.728029
PG09  25316.524952  -7601.040700  -2836.890604   -353.566221
PG10 -11570.294438  23104.856014  -5288.230059   -324.324484
PG11 -11137.942302 -22870.860343   7661.381601    -84.507925
PG12 -13536.927295  -6212.566186  21726.217876   -173.108677
PG13 -11397.092796 -13203.075484 -20230.433837    263.982961
PG14  13084.811725 -22296.655662  -5934.087579    -85.493140
PG15 -20481.278377  -6049.337492 -16393.614749    -82.770743
PG16   2964.512061  20787.718110 -16241.655761   -471.200875
PG17  16452.397485 -13377.086204  16459.339909    576.917798
PG18 -15452.115394   4197.928909 -21210.096823    237.203851
PG19   8829.275298 -14419.126057  20173.847092    120.758960
PG20  -3009.485000 -24605.706882  -9873.573714    516.640639
PG21  20862.043817  16731.407711   3632.148039    158.259799
PG22  -4871.288977  15545.176141  21345.397860    215.662002
PG23 -15608.425828  15205.228606 -15132.527913      0.062863
PG24 -21772.699561 -13465.223057   7536.060080    273.766804
PG25 -16581.166130   7978.784573  18765.738852    287.481215
PG26  -3848.107248  25741.104504  -4466.471812    184.397010
PG27   8355.402271  13335.647321 -21648.002122    124.879506
PG28   8830.148036 -25042.115715   3147.257977    397.490338
PG29 -26330.538063   3671.711014   -648.094129   -481.910855
PG30   9536.935629 -12817.667186 -21122.253089   -514.213062
PG31    952.158732  19990.903359  17096.934830   -165.365172
PG32 -11764.433950  15461.842685  18155.584875    -70.193615
PJ01 -31321.128478  28066.473149   8620.285727    240.139979
PJ02 -29382.369582  25611.592833  21038.278630     -1.442267
PJ03 -28838.705421  16186.335211 -21550.125628     -0.594839
PR01 -21015.339536  13132.519683  -6069.993611      7.089620
PR02 -12619.561316  17525.106250  13566.792958    510.102133
PR03   3164.151414  11166.029578  22754.309631     51.725077
PR04  16741.242175  -1429.544281  19225.577736    128.314079
PR05  21297.044819 -13123.782006   5066.576972     87.972865
PR07  -3696.457429 -10769.808524 -22789.982446     31.782244
PR08 -16838.337439   1515.674184 -19032.405971    -63.635815
PR09   1338.339985 -23492.067548  -9749.758843     40.226700
PR11 -11291.109974 -10424.612406  20362.073116     45.327629
PR12  -9165.494190   9727.194564  21740.135843     17.233628
PR13  -1843.315887  23012.255779  10821.163815    -18.453162
PR14   6993.549504  23318.477022  -7629.421822     74.521560
PR15  11317.130215   9788.710964 -20644.069628     98.092742
PR17  14900.784139  13828.115256 -15375.381577    502.832371
PR18  23555.263119   9858.378279    483.411658    107.729554
PR19  20334.831208   1887.871002  15289.394394   -178.706908
PR20   3432.699304  -9793.038413  23312.279054    -65.184675
PR21 -16026.403319 -13802.272286  14277.902584   -279.139271
PR22 -23542.524526  -9574.344271  -1408.463521   -165.583697
PR24  -2630.592520  10604.510363 -23028.802324     80.847291
EOF
